CSS (TIANHE)            
1 48274U 21035A   23200.43945517  .00026114  00000+0  31647-3 0  9998
2 48274  41.4754 319.9719 0009149 311.8664  48.1393 15.59996515126870
